O3B FM5                 
1 39188U 13031A   23164.87941690 -.00000021  00000+0  00000+0 0  9999
2 39188   0.0510 346.0220 0003034  97.7348 276.2771  5.00115558182139
O3B FM4                 
1 39189U 13031B   23164.73528255 -.00000020  00000+0  00000+0 0  9992
2 39189   0.0449  18.8047 0002983  65.2398 275.9888  5.00116038182059
O3B FM2                 
1 39190U 13031C   23164.62717474 -.00000020  00000+0  00000+0 0  9995
2 39190   0.0445  25.3913 0002858  57.1516 277.4888  5.00115256182109
O3B PFM                 
1 39191U 13031D   23165.45268997 -.00000021  00000+0  00000+0 0  9990
2 39191   0.0487 355.9488 0002646  85.4114 278.6691  5.00116021182159
O3B FM3                 
1 40079U 14038A   23164.70765238 -.00000020  00000+0  00000+0 0  9991
2 40079   0.0444   8.9965 0001913  11.9003 339.1102  5.00116692158046
O3B FM7                 
1 40080U 14038B   23164.65412300 -.00000020  00000+0  00000+0 0  9996
2 40080   0.0408  12.5877 0004335  81.4524 266.0086  5.00115788162872
O3B FM6                 
1 40081U 14038C   23164.68064965 -.00000020  00000+0  00000+0 0  9990
2 40081   0.0450  10.0318 0002738  70.3772 279.6212  5.00115276162828
O3B FM8                 
1 40082U 14038D   23164.73433341 -.00000020  00000+0  00000+0 0  9995
2 40082   0.0460  13.7844 0002585  68.5768 277.6674  5.00115891162944
O3B FM10                
1 40348U 14083A   23164.76068555 -.00000021  00000+0  00000+0 0  9995
2 40348   0.0507   1.5386 0002674  80.2067 278.2842  5.00115283154893
O3B FM11                
1 40349U 14083B   23164.77403058 -.00000020  00000+0  00000+0 0  9997
2 40349   0.0466 358.8188 0003388  82.5857 278.6332  5.00115494154916
O3B FM12                
1 40350U 14083C   23164.60140021 -.00000020  00000+0  00000+0 0  9999
2 40350   0.0467   0.0322 0002823  78.1563 281.8424  5.00115402154910
O3B FM9                 
1 40351U 14083D   23164.62786272 -.00000020  00000+0  00000+0 0  9996
2 40351   0.0458 357.8129 0002756  83.7901 278.4275  5.00116134155068
DIAMOND RED             
1 42783U 17036U   23165.05985022  .00026444  00000+0  65452-3 0  9993
2 42783  97.1507 199.8195 0009869 114.7308 245.4967 15.40361025332319
DIAMOND GREEN           
1 42785U 17036W   23165.06281082  .00029330  00000+0  70218-3 0  9994
2 42785  97.1504 200.0226 0009687 115.5027 244.7223 15.41352446332318
DIAMOND BLUE            
1 42786U 17036X   23165.08697704  .00027355  00000+0  66406-3 0  9998
2 42786  97.1508 199.9887 0009882 115.0733 245.1541 15.40943239332311
LEO VANTAGE 1           
1 43113U 18004C   23164.53533312  .00005884  00000+0  46007-3 0  9990
2 43113  99.2538 288.7582 0391685 184.6330 175.1199 14.56519095276741
O3B FM15                
1 43231U 18024A   23164.69375457 -.00000020  00000+0  00000+0 0  9991
2 43231   0.0539   2.8186 0002904  75.1653 282.0479  5.00114462 96021
O3B FM16                
1 43232U 18024B   23164.54733570 -.00000020  00000+0  00000+0 0  9990
2 43232   0.0581   3.2459 0002935  75.4469 281.3394  5.00116237 95938
O3B FM14                
1 43233U 18024C   23164.38738863 -.00000020  00000+0  00000+0 0  9993
2 43233   0.0594   4.1505 0003080  76.5141 279.3694  5.00115657 95931
O3B FM13                
1 43234U 18024D   23164.24115021 -.00000020  00000+0  00000+0 0  9994
2 43234   0.0565 342.7127 0003265  82.2794 295.0411  5.00115414 96163
O3B FM20                
1 44112U 19020A   23164.81385324 -.00000021  00000+0  00000+0 0  9996
2 44112   0.0506   2.3095 0003250  72.8463 284.8795  5.00115663 76568
O3B FM19                
1 44113U 19020B   23164.64093765 -.00000020  00000+0  00000+0 0  9992
2 44113   0.0420 348.7312 0004011 107.4207 263.8931  5.00115359 76639
O3B FM17                
1 44114U 19020C   23165.12094641 -.00000021  00000+0  00000+0 0  9992
2 44114   0.0608  19.8414 0002935  56.9301 283.2605  5.00115870 76668
O3B FM18                
1 44115U 19020D   23164.66760922 -.00000020  00000+0  00000+0 0  9992
2 44115   0.0504   1.8628 0002820  78.3708 279.7974  5.00115959 76649
SALSAT                  
1 46495U 20068K   23164.60339092  .00004869  00000+0  32237-3 0  9998
2 46495  97.7694 112.5677 0016836 128.5932 231.6807 15.07698502148536
